CTC2_L_00003001-01
1 10000U 23907TM  26075.70040509  .00000000  00000+0  00000-0 0  9996
2 10000  85.0000   0.0000 0000000   0.0000   0.0000 15.90815360    15
CTC2_L_00003001-02
1 10001U 26946RS  26075.70040509  .00000000  00000+0  00000-0 0  9993
2 10001  85.0000   0.0000 0000000   0.0000  90.0000 15.90815360    15
CTC2_L_00003001-03
1 10002U 26203YX  26075.70040509  .00000000  00000+0  00000-0 0  9990
2 10002  85.0000   0.0000 0000000   0.0000 180.0000 15.90815360    16
CTC2_L_00003001-04
1 10003U 26241BU  26075.70040509  .00000000  00000+0  00000-0 0  9993
2 10003  85.0000   0.0000 0000000   0.0000 270.0000 15.90815360    17
CTC2_L_00003002-01
1 10004U 25274ZW  26075.70040509  .00000000  00000+0  00000-0 0  9999
2 10004  85.0000  12.0000 0000000   0.0000  12.0000 15.90815360    15
CTC2_L_00003002-02
1 10005U 22021DW  26075.70040509  .00000000  00000+0  00000-0 0  9997
2 10005  85.0000  12.0000 0000000   0.0000 102.0000 15.90815360    16
CTC2_L_00003002-03
1 10006U 26393MZ  26075.70040509  .00000000  00000+0  00000-0 0  9994
2 10006  85.0000  12.0000 0000000   0.0000 192.0000 15.90815360    16
CTC2_L_00003002-04
1 10007U 25401RA  26075.70040509  .00000000  00000+0  00000-0 0  9994
2 10007  85.0000  12.0000 0000000   0.0000 282.0000 15.90815360    17
CTC2_L_00003003-01
1 10008U 25950BG  26075.70040509  .00000000  00000+0  00000-0 0  9994
2 10008  85.0000  24.0000 0000000   0.0000  24.0000 15.90815360    15
CTC2_L_00003003-02
1 10009U 26196OP  26075.70040509  .00000000  00000+0  00000-0 0  9998
2 10009  85.0000  24.0000 0000000   0.0000 114.0000 15.90815360    16
CTC2_L_00003003-03
1 10010U 22520MJ  26075.70040509  .00000000  00000+0  00000-0 0  9997
2 10010  85.0000  24.0000 0000000   0.0000 204.0000 15.90815360    18
CTC2_L_00003003-04
1 10011U 22627QZ  26075.70040509  .00000000  00000+0  00000-0 0  9996
2 10011  85.0000  24.0000 0000000   0.0000 294.0000 15.90815360    18
CTC2_L_00003004-01
1 10012U 24931RB  26075.70040509  .00000000  00000+0  00000-0 0  9997
2 10012  85.0000  36.0000 0000000   0.0000  36.0000 15.90815360    16
CTC2_L_00003004-02
1 10013U 25005CO  26075.70040509  .00000000  00000+0  00000-0 0  9991
2 10013  85.0000  36.0000 0000000   0.0000 126.0000 15.90815360    17
CTC2_L_00003004-03
1 10014U 26727Y   26075.70040509  .00000000  00000+0  00000-0 0  9994
2 10014  85.0000  36.0000 0000000   0.0000 216.0000 15.90815360    18
CTC2_L_00003004-04
1 10015U 24635XB  26075.70040509  .00000000  00000+0  00000-0 0  9991
2 10015  85.0000  36.0000 0000000   0.0000 306.0000 15.90815360    19
CTC2_L_00003005-01
1 10016U 25364AM  26075.70040509  .00000000  00000+0  00000-0 0  9992
2 10016  85.0000  48.0000 0000000   0.0000  48.0000 15.90815360    16
CTC2_L_00003005-02
1 10017U 23813VL  26075.70040509  .00000000  00000+0  00000-0 0  9990
2 10017  85.0000  48.0000 0000000   0.0000 138.0000 15.90815360    17
CTC2_L_00003005-03
1 10018U 25483AN  26075.70040509  .00000000  00000+0  00000-0 0  9996
2 10018  85.0000  48.0000 0000000   0.0000 228.0000 15.90815360    18
CTC2_L_00003005-04
1 10019U 26701MB  26075.70040509  .00000000  00000+0  00000-0 0  9991
2 10019  85.0000  48.0000 0000000   0.0000 318.0000 15.90815360    19
CTC2_L_00003006-01
1 10020U 22120UV  26075.70040509  .00000000  00000+0  00000-0 0  9994
2 10020  85.0000  60.0000 0000000   0.0000  60.0000 15.90815360    19
CTC2_L_00003006-02
1 10021U 22027LA  26075.70040509  .00000000  00000+0  00000-0 0  9991
2 10021  85.0000  60.0000 0000000   0.0000 150.0000 15.90815360    10
CTC2_L_00003006-03
1 10022U 24931BY  26075.70040509  .00000000  00000+0  00000-0 0  9998
2 10022  85.0000  60.0000 0000000   0.0000 240.0000 15.90815360    11
CTC2_L_00003006-04
1 10023U 25620SL  26075.70040509  .00000000  00000+0  00000-0 0  9995
2 10023  85.0000  60.0000 0000000   0.0000 330.0000 15.90815360    12
CTC2_L_00003007-01
1 10024U 26133IF  26075.70040509  .00000000  00000+0  00000-0 0  9996
2 10024  85.0000  72.0000 0000000   0.0000  72.0000 15.90815360    19
CTC2_L_00003007-02
1 10025U 25838WV  26075.70040509  .00000000  00000+0  00000-0 0  9998
2 10025  85.0000  72.0000 0000000   0.0000 162.0000 15.90815360    10
CTC2_L_00003007-03
1 10026U 22214LG  26075.70040509  .00000000  00000+0  00000-0 0  9994
2 10026  85.0000  72.0000 0000000   0.0000 252.0000 15.90815360    11
CTC2_L_00003007-04
1 10027U 24787ZM  26075.70040509  .00000000  00000+0  00000-0 0  9992
2 10027  85.0000  72.0000 0000000   0.0000 342.0000 15.90815360    12
CTC2_L_00003008-01
1 10028U 24255LA  26075.70040509  .00000000  00000+0  00000-0 0  9993
2 10028  85.0000  84.0000 0000000   0.0000  84.0000 15.90815360    19
CTC2_L_00003008-02
1 10029U 23209SO  26075.70040509  .00000000  00000+0  00000-0 0  9992
2 10029  85.0000  84.0000 0000000   0.0000 174.0000 15.90815360    10
CTC2_L_00003008-03
1 10030U 22047DI  26075.70040509  .00000000  00000+0  00000-0 0  9993
2 10030  85.0000  84.0000 0000000   0.0000 264.0000 15.90815360    12
CTC2_L_00003008-04
1 10031U 24040CV  26075.70040509  .00000000  00000+0  00000-0 0  9999
2 10031  85.0000  84.0000 0000000   0.0000 354.0000 15.90815360    13
CTC2_L_00003009-01
1 10032U 26043R   26075.70040509  .00000000  00000+0  00000-0 0  9995
2 10032  85.0000  96.0000 0000000   0.0000  96.0000 15.90815360    10
CTC2_L_00003009-02
1 10033U 23190AK  26075.70040509  .00000000  00000+0  00000-0 0  9996
2 10033  85.0000  96.0000 0000000   0.0000 186.0000 15.90815360    11
CTC2_L_00003009-03
1 10034U 23914Q   26075.70040509  .00000000  00000+0  00000-0 0  9991
2 10034  85.0000  96.0000 0000000   0.0000 276.0000 15.90815360    12
CTC2_L_00003009-04
1 10035U 22099HY  26075.70040509  .00000000  00000+0  00000-0 0  9995
2 10035  85.0000  96.0000 0000000   0.0000   6.0000 15.90815360    14
CTC2_L_00003010-01
1 10036U 25171QL  26075.70040509  .00000000  00000+0  00000-0 0  9990
2 10036  85.0000 108.0000 0000000   0.0000 108.0000 15.90815360    12
CTC2_L_00003010-02
1 10037U 23183UP  26075.70040509  .00000000  00000+0  00000-0 0  9992
2 10037  85.0000 108.0000 0000000   0.0000 198.0000 15.90815360    12
CTC2_L_00003010-03
1 10038U 25823WQ  26075.70040509  .00000000  00000+0  00000-0 0  9996
2 10038  85.0000 108.0000 0000000   0.0000 288.0000 15.90815360    13
CTC2_L_00003010-04
1 10039U 25199SH  26075.70040509  .00000000  00000+0  00000-0 0  9993
2 10039  85.0000 108.0000 0000000   0.0000  18.0000 15.90815360    15
CTC2_L_00003011-01
1 10040U 24409RP  26075.70040509  .00000000  00000+0  00000-0 0  9998
2 10040  85.0000 120.0000 0000000   0.0000 120.0000 15.90815360    15
CTC2_L_00003011-02
1 10041U 25065Q   26075.70040509  .00000000  00000+0  00000-0 0  9998
2 10041  85.0000 120.0000 0000000   0.0000 210.0000 15.90815360    16
CTC2_L_00003011-03
1 10042U 22912OT  26075.70040509  .00000000  00000+0  00000-0 0  9997
2 10042  85.0000 120.0000 0000000   0.0000 300.0000 15.90815360    17
CTC2_L_00003011-04
1 10043U 22620WO  26075.70040509  .00000000  00000+0  00000-0 0  9994
2 10043  85.0000 120.0000 0000000   0.0000  30.0000 15.90815360    18
CTC2_L_00003012-01
1 10044U 26922RM  26075.70040509  .00000000  00000+0  00000-0 0  9994
2 10044  85.0000 132.0000 0000000   0.0000 132.0000 15.90815360    15
CTC2_L_00003012-02
1 10045U 25179BV  26075.70040509  .00000000  00000+0  00000-0 0  9998
2 10045  85.0000 132.0000 0000000   0.0000 222.0000 15.90815360    16
CTC2_L_00003012-03
1 10046U 23068EK  26075.70040509  .00000000  00000+0  00000-0 0  9994
2 10046  85.0000 132.0000 0000000   0.0000 312.0000 15.90815360    17
CTC2_L_00003012-04
1 10047U 25131XR  26075.70040509  .00000000  00000+0  00000-0 0  9998
2 10047  85.0000 132.0000 0000000   0.0000  42.0000 15.90815360    18
CTC2_L_00003013-01
1 10048U 26371ZH  26075.70040509  .00000000  00000+0  00000-0 0  9996
2 10048  85.0000 144.0000 0000000   0.0000 144.0000 15.90815360    15
CTC2_L_00003013-02
1 10049U 24083WP  26075.70040509  .00000000  00000+0  00000-0 0  9995
2 10049  85.0000 144.0000 0000000   0.0000 234.0000 15.90815360    16
CTC2_L_00003013-03
1 10050U 24860XA  26075.70040509  .00000000  00000+0  00000-0 0  9990
2 10050  85.0000 144.0000 0000000   0.0000 324.0000 15.90815360    18
CTC2_L_00003013-04
1 10051U 22764RO  26075.70040509  .00000000  00000+0  00000-0 0  9992
2 10051  85.0000 144.0000 0000000   0.0000  54.0000 15.90815360    19
CTC2_L_00003014-01
1 10052U 22196HW  26075.70040509  .00000000  00000+0  00000-0 0  9992
2 10052  85.0000 156.0000 0000000   0.0000 156.0000 15.90815360    16
CTC2_L_00003014-02
1 10053U 22376VH  26075.70040509  .00000000  00000+0  00000-0 0  9993
2 10053  85.0000 156.0000 0000000   0.0000 246.0000 15.90815360    17
CTC2_L_00003014-03
1 10054U 25105BK  26075.70040509  .00000000  00000+0  00000-0 0  9997
2 10054  85.0000 156.0000 0000000   0.0000 336.0000 15.90815360    18
CTC2_L_00003014-04
1 10055U 22507PR  26075.70040509  .00000000  00000+0  00000-0 0  9991
2 10055  85.0000 156.0000 0000000   0.0000  66.0000 15.90815360    19
CTC2_L_00003015-01
1 10056U 23631WA  26075.70040509  .00000000  00000+0  00000-0 0  9991
2 10056  85.0000 168.0000 0000000   0.0000 168.0000 15.90815360    16
CTC2_L_00003015-02
1 10057U 23379YO  26075.70040509  .00000000  00000+0  00000-0 0  9991
2 10057  85.0000 168.0000 0000000   0.0000 258.0000 15.90815360    17
CTC2_L_00003015-03
1 10058U 23110SX  26075.70040509  .00000000  00000+0  00000-0 0  9995
2 10058  85.0000 168.0000 0000000   0.0000 348.0000 15.90815360    18
CTC2_L_00003015-04
1 10059U 24772AE  26075.70040509  .00000000  00000+0  00000-0 0  9991
2 10059  85.0000 168.0000 0000000   0.0000  78.0000 15.90815360    19
CTC2_L_00003016-01
1 10060U 23402ZR  26075.70040509  .00000000  00000+0  00000-0 0  9992
2 10060  85.0000 180.0000 0000000   0.0000 180.0000 15.90815360    19
CTC2_L_00003016-02
1 10061U 24287GT  26075.70040509  .00000000  00000+0  00000-0 0  9995
2 10061  85.0000 180.0000 0000000   0.0000 270.0000 15.90815360    10
